EUTELSAT 7A             
1 28187U 04008A   25288.60056709  .00000093  00000+0  00000+0 0  9996
2 28187   5.2070  74.9107 0001481 177.0349 209.4399  1.00271589 78908
EUTELSAT 174A           
1 28924U 05052A   25288.60461322 -.00000001  00000+0  00000+0 0  9996
2 28924   3.5975  79.5411 0006396 129.7338 206.8066  1.00273625 49872
EUTELSAT HOTBIRD 13B    
1 29270U 06032A   25288.63471392  .00000142  00000+0  00000+0 0  9996
2 29270   1.0264  84.8701 0004129 114.3499  86.8153  1.00268769 44851
EUTELSAT HOTBIRD 13C    
1 33459U 08065A   25288.62552722 -.00000112  00000+0  00000+0 0  9992
2 33459   2.3187  82.0635 0005873 145.5800   9.4720  1.00271808 44891
EUTELSAT 36B            
1 36101U 09065A   25288.63818060  .00000098  00000+0  00000+0 0  9993
2 36101   0.0474  20.9184 0006116 189.7554  93.9798  1.00271844 58257
EUTELSAT KA-SAT 9A      
1 37258U 10069A   25288.20179586  .00000047  00000+0  00000+0 0  9993
2 37258   0.0582 320.8666 0002475 210.7036 294.0923  1.00269108 41551
EUTELSAT 7 WEST A       
1 37816U 11051A   25288.62674056 -.00000074  00000+0  00000+0 0  9994
2 37816   0.0782  34.9289 0006531 169.1605  38.6600  1.00272475 51436
EUTELSAT 16A            
1 37836U 11057A   25288.63133391  .00000090  00000+0  00000+0 0  9992
2 37836   0.0651   9.5819 0005437 196.5817  61.5388  1.00271791  4877
